OPS 6582 (TRANSIT 5B-5) 
1 00965U 64083D   22221.38386501  .00000040  00000+0  42918-4 0  9995
2 00965  90.0270 195.5855 0043136  75.0442  78.4831 13.56784536852696
OSCAR 7 (AO-7)          
1 07530U 74089B   22221.42760648 -.00000037  00000+0  58240-4 0  9992
2 07530 101.9081 201.4719 0011932 302.0235 211.5124 12.53656251184108
UOSAT 2 (UO-11)         
1 14781U 84021B   22221.45919789  .00000604  00000+0  79011-4 0  9998
2 14781  97.6208 206.4879 0009326 139.3863 220.8049 14.83745636 47906
NOAA 9                  
1 15427U 84123A   22221.85668439  .00000046  00000+0  46671-4 0  9992
2 15427  99.0491 195.0894 0015241  18.0070  11.2199 14.16214232944408
LUSAT (LO-19)           
1 20442U 90005G   22221.37364261  .00000059  00000+0  38338-4 0  9999
2 20442  98.7978 187.0544 0012138  18.9121 341.2511 14.33075819700687
ITAMSAT (IO-26)         
1 22826U 93061D   22221.34537602  .00000064  00000+0  42408-4 0  9999
2 22826  98.8787 253.3693 0008006 240.5924 119.4459 14.30531964505975
RADIO ROSTO (RS-15)     
1 23439U 94085A   22221.61096088 -.00000039  00000+0  10000-3 0  9990
2 23439  64.8126  59.6366 0167818 263.5064  94.6728 11.27571924137480
JAS-2 (FO-29)           
1 24278U 96046B   22221.30281780  .00000024  00000+0  57311-4 0  9992
2 24278  98.5153 237.7232 0350953 146.0330 216.3826 13.53118324282757
NOAA 15                 
1 25338U 98030A   22221.81068204  .00000133  00000+0  73786-4 0  9990
2 25338  98.6417 250.6414 0011212 137.7667 222.4379 14.26159215260872
TECHSAT 1B (GO-32)      
1 25397U 98043D   22221.34663996  .00000015  00000+0  26081-4 0  9991
2 25397  98.8204 171.9632 0000998  12.5977 347.5225 14.23764785250951
ISS (ZARYA)             
1 25544U 98067A   22221.92646991  .00006058  00000+0  11289-3 0  9997
2 25544  51.6448  70.3700 0005152 101.7041  98.6467 15.50292585353513
ORSTED                  
1 25635U 99008B   22221.74849452  .00000262  00000+0  69473-4 0  9991
2 25635  96.4543  74.1746 0138584  11.9279 348.5145 14.48508256238265
PHASE 3D (AO-40)        
1 26609U 00072B   22221.12792804 -.00000226  00000+0  00000+0 0  9993
2 26609   6.0881 258.2306 7991853  39.2919 357.3038  1.25589343 99815
PCSAT (NO-44)           
1 26931U 01043C   22221.58047595  .00000049  00000+0  50393-4 0  9997
2 26931  67.0507 281.2678 0006912 257.8561 102.1766 14.30722411 89009
SAUDISAT 1C (SO-50)     
1 27607U 02058C   22221.50250547  .00000433  00000+0  79795-4 0  9994
2 27607  64.5548 139.5561 0080590 284.2563  74.9599 14.76193962 56415
CUTE-1 (CO-55)          
1 27844U 03031E   22221.81469878  .00000178  00000+0  99473-4 0  9993
2 27844  98.6793 228.6959 0008933 312.9886  47.0543 14.22477230991497
CUBESAT XI-IV (CO-57)   
1 27848U 03031J   22220.87965736  .00000149  00000+0  87080-4 0  9995
2 27848  98.6837 228.2836 0009106 331.2691  28.7984 14.22030795991138
MOZHAYETS 4 (RS-22)     
1 27939U 03042A   22221.78977479  .00000564  00000+0  10836-3 0  9991
2 27939  98.1988   2.5168 0013667  44.3805 315.8509 14.67418268  8864
INMARSAT 4-F1           
1 28628U 05009A   22220.87619000 -.00000267  00000+0  00000+0 0  9993
2 28628   3.6473  35.5736 0003061 107.0766 273.6270  1.00270908 63550
NOAA 18                 
1 28654U 05018A   22221.74852257  .00000120  00000+0  88458-4 0  9997
2 28654  98.9465 292.1362 0014443 176.7882 183.3385 14.12762249887594
CUBESAT XI-V            
1 28895U 05043F   22221.33700122  .00000608  00000+0  12385-3 0  9996
2 28895  98.1130 351.9211 0015990 339.2634  20.7918 14.64417785895154
METOP-A                 
1 29499U 06044A   22221.63440404  .00000724  00000+0  10463-3 0  9990
2 29499  98.4477 267.9277 0197320 200.9600 314.0728 14.67306748821331
CARTOSAT-2 (IRS-P7)     
1 29710U 07001B   22221.26165924  .00016558  00000+0  40367-3 0  9998
2 29710  97.8692 329.8486 0146747 231.7255 127.0709 15.30505951844316
FALCONSAT-3             
1 30776U 07006E   22221.54286190  .00037986  00000+0  51045-3 0  9990
2 30776  35.4300 271.5873 0003529 193.9421 166.1215 15.56858010857855
CAPE-1                  
1 31130U 07012P   22221.52463177  .00000537  00000+0  12214-3 0  9999
2 31130  98.2706 161.7280 0096026 128.3306 232.6573 14.57174344812822
CARTOSAT-2A             
1 32783U 08021A   22221.74324059  .00000546  00000+0  81589-4 0  9996
2 32783  97.9623 281.4263 0012491   2.4604 357.6661 14.78641196770892
CUTE-1.7+APD II (CO-65) 
1 32785U 08021C   22221.36080548  .00001395  00000+0  15095-3 0  9999
2 32785  97.6612 190.5484 0014103  62.1431 298.1214 14.89737571774361
COMPASS-1               
1 32787U 08021E   22220.88987669  .00003611  00000+0  32582-3 0  9990
2 32787  97.5649 201.1044 0010817 338.8459  21.2314 14.96093879775893
AAUSAT-II               
1 32788U 08021F   22221.41968305  .00003805  00000+0  32819-3 0  9995
2 32788  97.5350 204.8784 0009778 308.7178  51.3170 14.97828923776366
DELFI-C3 (DO-64)        
1 32789U 08021G   22221.34540609  .00013015  00000+0  70258-3 0  9994
2 32789  97.3375 245.7615 0011792 134.4677 225.7522 15.14800202779930
SEEDS II (CO-66)        
1 32791U 08021J   22221.39714887  .00002215  00000+0  21867-3 0  9995
2 32791  97.6151 196.0208 0013259  21.0632 339.1131 14.92889553775096
YUBILEINY (RS-30)       
1 32953U 08025A   22221.73867158  .00000024  00000+0  10000-3 0  9990
2 32953  82.5044 150.8079 0019557 140.5612 219.6901 12.43112387644951
FENGYUN 3A              
1 32958U 08026A   22221.50302626  .00000053  00000+0  45728-4 0  9993
2 32958  98.5062 181.9772 0007794 224.9020 135.1527 14.18731970735741
PRISM (HITOMI)          
1 33493U 09002B   22221.44415145  .00004648  00000+0  37615-3 0  9996
2 33493  98.2277 211.0306 0017234  12.3991 347.7652 15.00186343736926
STARS (KUKAI)           
1 33498U 09002G   22221.52394204  .00001014  00000+0  14080-3 0  9997
2 33498  98.1623 114.4131 0012134  81.4922 278.7664 14.80102781729280
KKS-1 (KISEKI)          
1 33499U 09002H   22221.59258595  .00000484  00000+0  77827-4 0  9996
2 33499  98.2105 104.5028 0009801 138.5710 221.6244 14.76077503728084
NOAA 19                 
1 33591U 09005A   22221.82668792  .00000141  00000+0  10101-3 0  9993
2 33591  99.1449 257.0761 0014526  41.8007 318.4271 14.12596751695989
SWISSCUBE               
1 35932U 09051B   22221.32798136  .00000484  00000+0  11872-3 0  9992
2 35932  98.5633  78.7287 0006335 241.9372 118.1185 14.56919228683797
BEESAT-1                
1 35933U 09051C   22221.07656342  .00000391  00000+0  97958-4 0  9994
2 35933  98.5572  80.0637 0004467 257.5490 102.5207 14.56928322683835
ITUPSAT1                
1 35935U 09051E   22221.26367753  .00000370  00000+0  95119-4 0  9996
2 35935  98.5672  80.2978 0006783 261.2295  98.8134 14.56033127683562
XIWANG-1 (HOPE-1)       
1 36122U 09072B   22221.70161620 -.00000021  00000+0  57150-4 0  9999
2 36122 100.1868 191.1159 0006992 214.7627 145.3030 13.16370868607925
CARTOSAT-2B             
1 36795U 10035A   22221.78098756  .00000243  00000+0  40221-4 0  9999
2 36795  97.9572 281.5746 0015240  74.2230 286.0655 14.78683189651946
TISAT 1                 
1 36799U 10035E   22221.39847759  .00002062  00000+0  20370-3 0  9998
2 36799  98.1778  73.9227 0010414 284.3293  75.6768 14.93090253655660
FENGYUN 3B              
1 37214U 10059A   22221.83681417 -.00000023  00000+0  12023-4 0  9996
2 37214  99.0928 228.7582 0021769 202.2405 157.7825 14.14261409608506
JUGNU                   
1 37839U 11058B   22221.32187363  .00000371  00000+0  55908-4 0  9998
2 37839  19.9597 214.7957 0018946  20.4781 102.2215 14.12797321559624
SRMSAT                  
1 37841U 11058D   22221.23381604  .00000348  00000+0  45784-4 0  9990
2 37841  19.9723 295.8833 0011699 203.3686 185.5758 14.10764503558703
M-CUBED & EXP-1 PRIME   
1 37855U 11061F   22221.35077334  .00009227  00000+0  39970-3 0  9998
2 37855 101.7150   8.4693 0151527 263.7278  94.6660 15.13032837589232
HORYU-2                 
1 38340U 12025D   22221.46783224  .00000950  00000+0  14314-3 0  9992
2 38340  98.1931 300.6531 0012479  62.1446 298.1026 14.76753336540063
METOP-B                 
1 38771U 12049A   22221.77891052  .00000047  00000+0  41491-4 0  9993
2 38771  98.6923 280.7334 0000486 116.6081 351.8851 14.21500180513308
SARAL                   
1 39086U 13009A   22221.56094022  .00000047  00000+0  33861-4 0  9991
2 39086  98.5485  46.4117 0002289 100.5739 259.5702 14.32055770494085
AAUSAT 3                
1 39087U 13009B   22221.77993584  .00000190  00000+0  79485-4 0  9997
2 39087  98.3988  59.9905 0013454 104.6177 255.6519 14.36218798495239
STRAND-1                
1 39090U 13009E   22221.34990670  .00000171  00000+0  74476-4 0  9991
2 39090  98.4027  58.1001 0010191 110.9897 249.2380 14.35311544494988
BRITE-AUSTRIA           
1 39091U 13009F   22221.47481431  .00000088  00000+0  45707-4 0  9998
2 39091  98.4044  57.3979 0011532 117.1962 243.0400 14.35289262495038
UNIBRITE                
1 39092U 13009G   22221.01321449  .00000093  00000+0  47529-4 0  9991
2 39092  98.4079  56.7202 0010505 113.8839 246.3449 14.35159882494924
SOMP                    
1 39134U 13015E   22221.34256024  .00014268  00000+0  49089-3 0  9998
2 39134  64.8597 248.1508 0035698 272.6638  87.0408 15.29688378514941
BEESAT-3                
1 39135U 13015F   22221.46862303  .00009205  00000+0  37029-3 0  9991
2 39135  64.8659 285.0882 0039414 277.7303  81.9352 15.24716551514199
BEESAT-2                
1 39136U 13015G   22221.81404497  .00008592  00000+0  36245-3 0  9994
2 39136  64.8749 292.4384 0020138 297.5491  62.3592 15.23696876514522
NEE-01 PEGASO           
1 39151U 13018B   22221.54883391  .00000917  00000+0  12492-3 0  9999
2 39151  97.9944 327.0411 0018163  84.1526 276.1757 14.81044146501538
CUBEBUG-1 (CAPITAN BETO)
1 39153U 13018D   22221.79363723  .00001123  00000+0  14891-3 0  9995
2 39153  98.0167 331.9102 0017982  78.3133 282.0096 14.81757979501736
